{"type":"FeatureCollection","metadata":{"subject":"Nevada counties","source":"US Census Bureau cartographic boundary files (public domain), via the plotly/datasets mirror","source_url":"https://raw.githubusercontent.com/plotly/datasets/master/geojson-counties-fips.json","retrieved":"2026-08-24","processing":"Filtered to STATE=32, Douglas-Peucker simplified at 0.001 degrees, coordinates rounded to 4 decimal places. Suitable for state-level choropleths, not for measurement.","counties":17},"features":[{"type":"Feature","id":"32510","properties":{"name":"Carson City","land_sq_mi":144.7},"geometry":{"type":"MultiPolygon","coordinates":[[[[-120.0045,39.1656],[-119.8808,39.1655],[-119.7126,39.2509],[-119.649,39.1953],[-119.5637,39.1954],[-119.551,39.0858],[-119.7521,39.0849],[-119.7612,39.114],[-120.0034,39.1127],[-120.0045,39.1656]]]]}},{"type":"Feature","id":"32001","properties":{"name":"Churchill","land_sq_mi":4930.5},"geometry":{"type":"MultiPolygon","coordinates":[[[[-117.7755,39.0934],[-117.8651,39.0737],[-118.7538,39.0746],[-118.754,39.112],[-119.1182,39.3885],[-119.0599,39.7404],[-119.1907,39.6318],[-119.1893,39.6509],[-119.1709,39.7883],[-119.2085,39.81],[-119.2252,39.9994],[-117.7362,40.0025],[-117.5417,40.001],[-117.4616,39.8868],[-117.4953,39.7484],[-117.4618,39.6224],[-117.4853,39.5453],[-117.5902,39.5175],[-117.6564,39.468],[-117.646,39.4266],[-117.7598,39.3692],[-117.7141,39.2456],[-117.8062,39.1458],[-117.7755,39.0934]]]]}},{"type":"Feature","id":"32003","properties":{"name":"Clark","land_sq_mi":7891.4},"geometry":{"type":"MultiPolygon","coordinates":[[[[-115.8458,36.1202],[-115.8445,36.1222],[-115.8458,36.124],[-115.8458,36.1708],[-115.8958,36.1722],[-115.8954,36.5802],[-115.8969,36.8421],[-115.7408,36.8531],[-114.7625,36.8535],[-114.7623,36.8439],[-114.0506,36.8431],[-114.0506,36.6563],[-114.0465,36.4734],[-114.0464,36.3719],[-114.0485,36.2896],[-114.0468,36.1941],[-114.0603,36.1894],[-114.063,36.1869],[-114.1202,36.1022],[-114.1258,36.0775],[-114.1382,36.0413],[-114.1488,36.0273],[-114.1541,36.0239],[-114.2137,36.0156],[-114.2388,36.0146],[-114.2527,36.0202],[-114.2631,36.0259],[-114.2927,36.0511],[-114.3036,36.0665],[-114.3109,36.0838],[-114.3288,36.1055],[-114.3658,36.1337],[-114.3814,36.1417],[-114.5133,36.1512],[-114.572,36.1516],[-114.6317,36.1423],[-114.7362,36.1044],[-114.7449,36.0987],[-114.7556,36.0872],[-114.7436,35.9837],[-114.7313,35.9452],[-114.7061,35.8787],[-114.7042,35.852],[-114.7056,35.8489],[-114.7077,35.8119],[-114.7003,35.7004],[-114.6894,35.6514],[-114.6767,35.641],[-114.6575,35.6183],[-114.6534,35.6108],[-114.6538,35.5995],[-114.6711,35.5206],[-114.675,35.5106],[-114.6776,35.4897],[-114.6621,35.4442],[-114.652,35.4292],[-114.6271,35.4095],[-114.6043,35.3536],[-114.5959,35.3252],[-114.5692,35.1835],[-114.5696,35.1631],[-114.5727,35.1387],[-114.5785,35.1287],[-114.5843,35.125],[-114.5991,35.121],[-114.622,35.0947],[-114.6355,35.0283],[-114.633,35.0021],[-115.1458,35.4132],[-115.6472,35.809],[-115.8461,35.9636],[-115.8458,36.1202]]]]}},{"type":"Feature","id":"32005","properties":{"name":"Douglas","land_sq_mi":709.7},"geometry":{"type":"MultiPolygon","coordinates":[[[[-119.551,39.0858],[-119.3117,39.0836],[-119.3107,38.9907],[-119.4016,38.9833],[-119.4395,38.882],[-119.4039,38.8091],[-119.4063,38.7334],[-119.3499,38.7292],[-119.3285,38.5346],[-120.001,38.9996],[-120.0034,39.1127],[-119.7612,39.114],[-119.7521,39.0849],[-119.551,39.0858]]]]}},{"type":"Feature","id":"32007","properties":{"name":"Elko","land_sq_mi":17169.8},"geometry":{"type":"MultiPolygon","coordinates":[[[[-114.0417,41.9937],[-114.0399,41.742],[-114.0466,40.1169],[-115.2637,40.1225],[-115.835,40.1278],[-116.0009,40.1274],[-116.1578,40.6664],[-116.1582,40.9999],[-117.0184,41.0003],[-117.0183,41.9994],[-116.4635,41.9965],[-115.9869,41.9985],[-115.0318,41.996],[-114.9142,41.9999],[-114.7638,41.9999],[-114.5983,41.9945],[-114.0417,41.9937]]]]}},{"type":"Feature","id":"32009","properties":{"name":"Esmeralda","land_sq_mi":3581.9},"geometry":{"type":"MultiPolygon","coordinates":[[[[-117.691,38.4738],[-117.2409,38.0699],[-117.2411,38.0501],[-117.2193,38.0503],[-117.1656,38.0017],[-117.1662,36.9709],[-117.5009,37.2203],[-117.8327,37.4649],[-118.4286,37.8956],[-118.3515,37.8937],[-117.691,38.4738]]]]}},{"type":"Feature","id":"32011","properties":{"name":"Eureka","land_sq_mi":4175.7},"geometry":{"type":"MultiPolygon","coordinates":[[[[-115.835,40.1278],[-115.8135,39.5935],[-115.8983,39.4539],[-115.9077,39.4644],[-115.9071,39.1618],[-116.6009,39.1615],[-116.5971,39.1762],[-116.5902,39.7064],[-116.5968,40.9465],[-116.5871,40.947],[-116.5868,41.0004],[-116.1582,40.9999],[-116.1578,40.6664],[-116.0009,40.1274],[-115.835,40.1278]]]]}},{"type":"Feature","id":"32013","properties":{"name":"Humboldt","land_sq_mi":9640.8},"geometry":{"type":"MultiPolygon","coordinates":[[[[-118.7772,41.9927],[-118.1972,41.997],[-117.0183,41.9994],[-117.0187,40.643],[-117.2468,40.6424],[-117.3006,40.5261],[-117.3012,40.6823],[-117.6444,40.6843],[-117.6442,40.8578],[-118.7867,40.8559],[-118.7867,40.9609],[-119.3298,40.9604],[-119.3311,41.2351],[-119.3057,41.2345],[-119.3046,41.4147],[-119.324,41.4145],[-119.3242,41.9943],[-118.7772,41.9927]]]]}},{"type":"Feature","id":"32015","properties":{"name":"Lander","land_sq_mi":5490.1},"geometry":{"type":"MultiPolygon","coordinates":[[[[-117.3006,40.5261],[-117.2468,40.6424],[-117.0187,40.643],[-117.0184,41.0003],[-116.5868,41.0004],[-116.5871,40.947],[-116.5968,40.9465],[-116.5902,39.7064],[-116.5971,39.1762],[-116.6009,39.1615],[-117.3319,39.1634],[-117.7755,39.0934],[-117.8062,39.1458],[-117.7141,39.2456],[-117.7598,39.3692],[-117.646,39.4266],[-117.6564,39.468],[-117.5902,39.5175],[-117.4853,39.5453],[-117.4618,39.6224],[-117.4953,39.7484],[-117.4616,39.8868],[-117.5417,40.001],[-117.3006,40.5261]]]]}},{"type":"Feature","id":"32017","properties":{"name":"Lincoln","land_sq_mi":10633.2},"geometry":{"type":"MultiPolygon","coordinates":[[[[-114.0499,38.6774],[-114.0504,38.0],[-114.0485,37.8099],[-114.0518,37.7462],[-114.0527,37.5173],[-114.0506,36.8431],[-114.7623,36.8439],[-114.7625,36.8535],[-115.7408,36.8531],[-115.8969,36.8421],[-115.8945,36.8617],[-115.8939,38.0505],[-115.0008,38.0508],[-115.0008,38.6773],[-114.0499,38.6774]]]]}},{"type":"Feature","id":"32019","properties":{"name":"Lyon","land_sq_mi":2001.2},"geometry":{"type":"MultiPolygon","coordinates":[[[[-119.7126,39.2509],[-119.6474,39.2666],[-119.4788,39.3374],[-119.2836,39.6216],[-119.2588,39.6492],[-119.1893,39.6509],[-119.1907,39.6318],[-119.0599,39.7404],[-119.1182,39.3885],[-118.754,39.112],[-118.7538,39.0746],[-118.9297,39.0737],[-119.0148,38.9433],[-119.0145,38.8513],[-118.9021,38.8522],[-118.9069,38.4147],[-119.1569,38.4147],[-119.3285,38.5346],[-119.3499,38.7292],[-119.4063,38.7334],[-119.4039,38.8091],[-119.4395,38.882],[-119.4016,38.9833],[-119.3107,38.9907],[-119.3117,39.0836],[-119.551,39.0858],[-119.5637,39.1954],[-119.649,39.1953],[-119.7126,39.2509]]]]}},{"type":"Feature","id":"32021","properties":{"name":"Mineral","land_sq_mi":3752.8},"geometry":{"type":"MultiPolygon","coordinates":[[[[-117.691,38.4738],[-118.3515,37.8937],[-118.4286,37.8956],[-118.7466,38.1249],[-119.1569,38.4147],[-118.9069,38.4147],[-118.9021,38.8522],[-119.0145,38.8513],[-119.0148,38.9433],[-118.9297,39.0737],[-117.8651,39.0737],[-118.1963,38.9999],[-118.1962,38.9191],[-117.691,38.4738]]]]}},{"type":"Feature","id":"32023","properties":{"name":"Nye","land_sq_mi":18181.9},"geometry":{"type":"MultiPolygon","coordinates":[[[[-115.8458,36.1202],[-115.8461,35.9636],[-116.4882,36.4591],[-117.0009,36.8477],[-117.1662,36.9709],[-117.1656,38.0017],[-117.2193,38.0503],[-117.2411,38.0501],[-117.2409,38.0699],[-117.691,38.4738],[-118.1962,38.9191],[-118.1963,38.9999],[-117.7755,39.0934],[-117.3319,39.1634],[-116.6009,39.1615],[-115.9071,39.1618],[-115.6016,38.9999],[-115.0008,38.6773],[-115.0008,38.0508],[-115.8939,38.0505],[-115.8945,36.8617],[-115.8969,36.8421],[-115.8954,36.5802],[-115.8958,36.1722],[-115.8458,36.1708],[-115.8458,36.124],[-115.8445,36.1222],[-115.8458,36.1202]]]]}},{"type":"Feature","id":"32027","properties":{"name":"Pershing","land_sq_mi":6036.6},"geometry":{"type":"MultiPolygon","coordinates":[[[[-119.2252,39.9994],[-119.3393,39.9986],[-119.3385,40.5178],[-119.313,40.5183],[-119.3096,40.9604],[-118.7867,40.9609],[-118.7867,40.8559],[-117.6442,40.8578],[-117.6444,40.6843],[-117.3012,40.6823],[-117.3006,40.5261],[-117.5417,40.001],[-117.7362,40.0025],[-119.2252,39.9994]]]]}},{"type":"Feature","id":"32029","properties":{"name":"Storey","land_sq_mi":262.9},"geometry":{"type":"MultiPolygon","coordinates":[[[[-119.2836,39.6216],[-119.4788,39.3374],[-119.6474,39.2666],[-119.7126,39.2509],[-119.6585,39.3315],[-119.6855,39.3896],[-119.6956,39.52],[-119.6217,39.5116],[-119.583,39.5473],[-119.4671,39.5845],[-119.3706,39.5869],[-119.2798,39.6271],[-119.2836,39.6216]]]]}},{"type":"Feature","id":"32031","properties":{"name":"Washoe","land_sq_mi":6302.4},"geometry":{"type":"MultiPolygon","coordinates":[[[[-119.3602,41.9944],[-119.3242,41.9943],[-119.324,41.4145],[-119.3046,41.4147],[-119.3057,41.2345],[-119.3311,41.2351],[-119.3298,40.9604],[-119.3096,40.9604],[-119.313,40.5183],[-119.3385,40.5178],[-119.3393,39.9986],[-119.2252,39.9994],[-119.2085,39.81],[-119.1709,39.7883],[-119.1893,39.6509],[-119.2588,39.6492],[-119.2836,39.6216],[-119.2798,39.6271],[-119.3706,39.5869],[-119.4671,39.5845],[-119.583,39.5473],[-119.6217,39.5116],[-119.6956,39.52],[-119.6855,39.3896],[-119.6585,39.3315],[-119.7126,39.2509],[-119.8808,39.1655],[-120.0045,39.1656],[-120.0054,39.3138],[-120.0031,39.4451],[-119.9962,40.2625],[-119.9959,40.4999],[-119.9994,40.8731],[-119.9992,41.9945],[-119.9867,41.9958],[-119.7901,41.9975],[-119.3602,41.9944]]]]}},{"type":"Feature","id":"32033","properties":{"name":"White Pine","land_sq_mi":8875.6},"geometry":{"type":"MultiPolygon","coordinates":[[[[-114.0466,40.1169],[-114.0499,38.6774],[-115.0008,38.6773],[-115.6016,38.9999],[-115.9071,39.1618],[-115.9077,39.4644],[-115.8983,39.4539],[-115.8135,39.5935],[-115.835,40.1278],[-115.2637,40.1225],[-114.0466,40.1169]]]]}}]}